$$SOE
2460154.500000000, A.D. 2023-Jul-29 00:00:00.0000, 1.939189581224428E+08, 1.852279803421504E+08, 1.931689334406469E+07,
2460161.500000000, A.D. 2023-Aug-05 00:00:00.0000, 1.841259643726902E+08, 1.939352531222501E+08, 1.468289295392740E+07,
2460168.500000000, A.D. 2023-Aug-12 00:00:00.0000, 1.738679491260565E+08, 2.021525837151713E+08, 1.001181092082532E+07,
2460175.500000000, A.D. 2023-Aug-19 00:00:00.0000, 1.631658859206458E+08, 2.098534695951605E+08, 5.315165468295604E+06,
2460182.500000000, A.D. 2023-Aug-26 00:00:00.0000, 1.520426290437451E+08, 2.170124703092788E+08, 6.048108429701626E+05,
2460189.500000000, A.D. 2023-Sep-02 00:00:00.0000, 1.405228815388135E+08, 2.236053676604366E+08, -4.107104529177576E+06,
2460196.500000000, A.D. 2023-Sep-09 00:00:00.0000, 1.286331472915279E+08, 2.296093260073020E+08, -8.808184610883906E+06,
2460203.500000000, A.D. 2023-Sep-16 00:00:00.0000, 1.164016667563025E+08, 2.350030507009037E+08, -1.348583685188857E+07,
2460210.500000000, A.D. 2023-Sep-23 00:00:00.0000, 1.038583363747622E+08, 2.397669428969631E+08, -1.812732752123120E+07,
2460217.500000000, A.D. 2023-Sep-30 00:00:00.0000, 9.103461126371776E+07, 2.438832497952064E+08, -2.271984073889251E+07,
2460224.500000000, A.D. 2023-Oct-07 00:00:00.0000, 7.796338902937961E+07, 2.473362075461768E+08, -2.725054053034528E+07,
2460231.500000000, A.D. 2023-Oct-14 00:00:00.0000, 6.467887625012791E+07, 2.501121713118954E+08, -3.170663566773195E+07,
2460238.500000000, A.D. 2023-Oct-21 00:00:00.0000, 5.121644172712871E+07, 2.521997319750387E+08, -3.607544679118905E+07,
2460245.500000000, A.D. 2023-Oct-28 00:00:00.0000, 3.761245629664648E+07, 2.535898197046179E+08, -4.034447474892499E+07,
2460252.500000000, A.D. 2023-Nov-04 00:00:00.0000, 2.390411946583852E+07, 2.542757916868644E+08, -4.450146927755895E+07,
2460259.500000000, A.D. 2023-Nov-11 00:00:00.0000, 1.012927483186871E+07, 2.542535017283527E+08, -4.853449719948462E+07,
2460266.500000000, A.D. 2023-Nov-18 00:00:00.0000, -3.673783472039002E+06, 2.535213502876208E+08, -5.243200925231438E+07,
2460273.500000000, A.D. 2023-Nov-25 00:00:00.0000, -1.746651097498679E+07, 2.520803139438068E+08, -5.618290467055658E+07,
2460280.500000000, A.D. 2023-Dec-02 00:00:00.0000, -3.121031722325533E+07, 2.499339536383201E+08, -5.977659268399030E+07,
2460287.500000000, A.D. 2023-Dec-09 00:00:00.0000, -4.486677162149482E+07, 2.470884013298748E+08, -6.320305014991444E+07,
2460294.500000000, A.D. 2023-Dec-16 00:00:00.0000, -5.839780783381272E+07, 2.435523251427011E+08, -6.645287460211542E+07,
2460301.500000000, A.D. 2023-Dec-23 00:00:00.0000, -7.176592378482711E+07, 2.393368741507098E+08, -6.951733202531503E+07,
2460308.500000000, A.D. 2023-Dec-30 00:00:00.0000, -8.493437607514802E+07, 2.344556046946920E+08, -7.238839858222257E+07,
2460315.500000000, A.D. 2024-Jan-06 00:00:00.0000, -9.786736818332091E+07, 2.289243870762551E+08, -7.505879586821698E+07,
2460322.500000000, A.D. 2024-Jan-13 00:00:00.0000, -1.105302270854149E+08, 2.227612923218561E+08, -7.752201977614953E+07,
2460329.500000000, A.D. 2024-Jan-20 00:00:00.0000, -1.228895651529881E+08, 2.159864639012520E+08, -7.977236261818181E+07,
2460336.500000000, A.D. 2024-Jan-27 00:00:00.0000, -1.349134277133608E+08, 2.086219770923232E+08, -8.180492819374865E+07,
2460343.500000000, A.D. 2024-Feb-03 00:00:00.0000, -1.465714253687762E+08, 2.006916872295451E+08, -8.361563988594188E+07,
2460350.500000000, A.D. 2024-Feb-10 00:00:00.0000, -1.578348498100320E+08, 1.922210688340536E+08, -8.520124200468418E+07,
2460357.500000000, A.D. 2024-Feb-17 00:00:00.0000, -1.686767723385562E+08, 1.832370479725101E+08, -8.655929467652795E+07,
2460364.500000000, A.D. 2024-Feb-24 00:00:00.0000, -1.790721247431607E+08, 1.737678301890979E+08, -8.768816267073426E+07,
2460371.500000000, A.D. 2024-Mar-02 00:00:00.0000, -1.889977624994982E+08, 1.638427262428655E+08, -8.858699863403821E+07,
2460378.500000000, A.D. 2024-Mar-09 00:00:00.0000, -1.984325104453473E+08, 1.534919777392388E+08, -8.925572127954854E+07,
2460385.500000000, A.D. 2024-Mar-16 00:00:00.0000, -2.073571910955697E+08, 1.427465848507533E+08, -8.969498912074426E+07,
2460392.500000000, A.D. 2024-Mar-23 00:00:00.0000, -2.157546364945912E+08, 1.316381390471269E+08, -8.990617024955776E+07,
2460399.500000000, A.D. 2024-Mar-30 00:00:00.0000, -2.236096868435120E+08, 1.201986624110865E+08, -8.989130857253915E+07,
2460406.500000000, A.D. 2024-Apr-06 00:00:00.0000, -2.309091767982358E+08, 1.084604515608344E+08, -8.965308742609301E+07,
2460413.500000000, A.D. 2024-Apr-13 00:00:00.0000, -2.376419071405895E+08, 9.645592817245622E+07, -8.919479142418079E+07,
2460420.500000000, A.D. 2024-Apr-20 00:00:00.0000, -2.437986041096260E+08, 8.421749968694645E+07, -8.852026679863456E+07,
2460427.500000000, A.D. 2024-Apr-27 00:00:00.0000, -2.493718693035946E+08, 7.177743032916297E+07, -8.763388069003418E+07,
2460434.500000000, A.D. 2024-May-04 00:00:00.0000, -2.543561214613668E+08, 5.916772222304541E+07, -8.654047996677396E+07,
2460441.500000000, A.D. 2024-May-11 00:00:00.0000, -2.587475312550138E+08, 4.642000678785237E+07, -8.524535006087157E+07,
2460448.500000000, A.D. 2024-May-18 00:00:00.0000, -2.625439503379662E+08, 3.356544653963710E+07, -8.375417423410909E+07,
2460455.500000000, A.D. 2024-May-25 00:00:00.0000, -2.657448358876581E+08, 2.063464723316329E+07, -8.207299363524519E+07,
2460462.500000000, A.D. 2024-Jun-01 00:00:00.0000, -2.683511717671788E+08, 7.657580091048893E+06, -8.020816846557522E+07,
2460469.500000000, A.D. 2024-Jun-08 00:00:00.0000, -2.703653871527081E+08, -5.336486215248004E+06, -7.816634053399992E+07,
2460476.500000000, A.D. 2024-Jun-15 00:00:00.0000, -2.717912732207571E+08, -1.831904369574012E+07, -7.595439740149219E+07,
2460483.500000000, A.D. 2024-Jun-22 00:00:00.0000, -2.726338997897114E+08, -3.126239259352573E+07, -7.357943808849715E+07,
2460490.500000000, A.D. 2024-Jun-29 00:00:00.0000, -2.728995348250045E+08, -4.413968072354341E+07, -7.104874042142518E+07,
2460497.500000000, A.D. 2024-Jul-06 00:00:00.0000, -2.725955648548175E+08, -5.692493765331234E+07, -6.836973055043277E+07,
2460504.500000000, A.D. 2024-Jul-13 00:00:00.0000, -2.717304149367418E+08, -6.959310150301033E+07, -6.554995463634441E+07,
2460511.500000000, A.D. 2024-Jul-20 00:00:00.0000, -2.703134706447647E+08, -8.212003783007631E+07, -6.259705244357577E+07,
2460518.500000000, A.D. 2024-Jul-27 00:00:00.0000, -2.683550031277329E+08, -9.448255218186179E+07, -5.951873284736033E+07,
2460525.500000000, A.D. 2024-Aug-03 00:00:00.0000, -2.658660972908380E+08, -1.066583973083239E+08, -5.632275128661096E+07,
2460532.500000000, A.D. 2024-Aug-10 00:00:00.0000, -2.628585831896261E+08, -1.186262756330189E+08, -5.301688913553151E+07,
2460539.500000000, A.D. 2024-Aug-17 00:00:00.0000, -2.593449707758857E+08, -1.303658375268518E+08, -4.960893493515368E+07,
2460546.500000000, A.D. 2024-Aug-24 00:00:00.0000, -2.553383880920187E+08, -1.418576759413010E+08, -4.610666741200903E+07,
2460553.500000000, A.D. 2024-Aug-31 00:00:00.0000, -2.508525228636717E+08, -1.530833179607821E+08, -4.251784020863622E+07,
2460560.500000000, A.D. 2024-Sep-07 00:00:00.0000, -2.459015671327485E+08, -1.640252136126053E+08, -3.885016824878892E+07,
2460567.500000000, A.D. 2024-Sep-14 00:00:00.0000, -2.405001648058799E+08, -1.746667213795798E+08, -3.511131556367656E+07,
2460574.500000000, A.D. 2024-Sep-21 00:00:00.0000, -2.346633640822212E+08, -1.849920904232162E+08, -3.130888426775835E+07,
2460581.500000000, A.D. 2024-Sep-28 00:00:00.0000, -2.284065751771201E+08, -1.949864431373008E+08, -2.745040481831332E+07,
2460588.500000000, A.D. 2024-Oct-05 00:00:00.0000, -2.217455295961082E+08, -2.046357583811997E+08, -2.354332780817677E+07,
2460595.500000000, A.D. 2024-Oct-12 00:00:00.0000, -2.146962412236193E+08, -2.139268527167589E+08, -1.959501692007191E+07,
2460602.500000000, A.D. 2024-Oct-19 00:00:00.0000, -2.072749708532794E+08, -2.228473601839292E+08, -1.561274280509438E+07,
2460609.500000000, A.D. 2024-Oct-26 00:00:00.0000, -1.994981940465086E+08, -2.313857116523397E+08, -1.160367785181060E+07,
2460616.500000000, A.D. 2024-Nov-02 00:00:00.0000, -1.913825719065170E+08, -2.395311141130868E+08, -7.574891792615756E+06,
2460623.500000000, A.D. 2024-Nov-09 00:00:00.0000, -1.829449245167318E+08, -2.472735300867323E+08, -3.533348071758792E+06,
2460630.500000000, A.D. 2024-Nov-16 00:00:00.0000, -1.742022068661696E+08, -2.546036573196837E+08, 5.140991015714556E+05,
2460637.500000000, A.D. 2024-Nov-23 00:00:00.0000, -1.651714870625418E+08, -2.615129089668629E+08, 4.560707082178175E+06,
2460644.500000000, A.D. 2024-Nov-30 00:00:00.0000, -1.558699264721083E+08, -2.679933944310434E+08, 8.599846548368633E+06,
2460651.500000000, A.D. 2024-Dec-07 00:00:00.0000, -1.463147612162285E+08, -2.740379005485232E+08, 1.262500275466347E+07,
2460658.500000000, A.D. 2024-Dec-14 00:00:00.0000, -1.365232855657575E+08, -2.796398719905586E+08, 1.662977650330456E+07,
2460665.500000000, A.D. 2024-Dec-21 00:00:00.0000, -1.265128394066597E+08, -2.847933921992033E+08, 2.060788500370531E+07,
2460672.500000000, A.D. 2024-Dec-28 00:00:00.0000, -1.163007976631075E+08, -2.894931678932873E+08, 2.455316225014389E+07,
2460679.500000000, A.D. 2025-Jan-04 00:00:00.0000, -1.059045589472717E+08, -2.937345148293954E+08, 2.845955892466833E+07,
2460686.500000000, A.D. 2025-Jan-11 00:00:00.0000, -9.534153512963086E+07, -2.975133432070351E+08, 3.232114217634991E+07,
2460693.500000000, A.D. 2025-Jan-18 00:00:00.0000, -8.462914262338674E+07, -3.008261436741199E+08, 3.613209533115172E+07,
2460700.500000000, A.D. 2025-Jan-25 00:00:00.0000, -7.378479502035609E+07, -3.036699744350566E+08, 3.988671751296885E+07,
2460707.500000000, A.D. 2025-Feb-01 00:00:00.0000, -6.282589677260128E+07, -3.060424495117494E+08, 4.357942319374809E+07,
2460714.500000000, A.D. 2025-Feb-08 00:00:00.0000, -5.176983774773416E+07, -3.079417281549085E+08, 4.720474170383641E+07,
$$EOE